[
    {
        "businessName": "AEROVIAJESCARNAVAL & TOURS INC",
        "address": "121 E. FIFTH ST",
        "city": "OXNARD",
        "state": "CA",
        "zip": "93030",
        "pointOfContact": "JOSE PEDROZA",
        "telephone": "(805) 486-5335",
        "serviceType": "Electronic Return Originator"
    },
    {
        "businessName": "AG CONSULTING GROUP INC AN ACCOUNTA",
        "address": "1544 MARSELLA DRIVE",
        "city": "OXNARD",
        "state": "CA",
        "zip": "93030",
        "pointOfContact": "Alfonso Gonzalez",
        "telephone": "(805) 276-9294",
        "serviceType": "Electronic Return Originator, Transmitter"
    },
    {
        "businessName": "ALS INCOME TAX SERVICE INC",
        "address": "425 N OXNARD BLVD",
        "city": "OXNARD",
        "state": "CA",
        "zip": "93030",
        "pointOfContact": "Astolfo Gutierrez",
        "telephone": "(805) 483-5888",
        "serviceType": "Electronic Return Originator"
    },
    {
        "businessName": "ANDREWS & ASSOCIATES CPA",
        "address": "1545 W 5TH ST SUITE 110",
        "city": "OXNARD",
        "state": "CA",
        "zip": "93030",
        "pointOfContact": "ROD ANDREWS",
        "telephone": "(805) 382-8880",
        "serviceType": "Electronic Return Originator"
    },
    {
        "businessName": "ANGELICA CHAVEZ",
        "address": "121 WALNUT DR",
        "city": "OXNARD",
        "state": "CA",
        "zip": "93030",
        "pointOfContact": "ANGELICA CHAVEZ",
        "telephone": "(805) 485-6547",
        "serviceType": "Electronic Return Originator, Intermediate Service Provider, Transmitter"
    },
    {
        "businessName": "ARREDONDOS INCOME TAX",
        "address": "1131 JUNEWOOD CRT",
        "city": "OXNARD",
        "state": "CA",
        "zip": "93030",
        "pointOfContact": "EVA GARCIA",
        "telephone": "(805) 844-2172",
        "serviceType": "Electronic Return Originator"
    },
    {
        "businessName": "BERNARDO GONZALES INSURANCE AGENCY",
        "address": "309 W 4TH ST",
        "city": "OXNARD",
        "state": "CA",
        "zip": "93030",
        "pointOfContact": "BERNARDO GONZALEZ",
        "telephone": "(805) 240-9950",
        "serviceType": "Electronic Return Originator"
    },
    {
        "businessName": "BLOCK ADVISORS",
        "address": "365 ESPLANADE 101",
        "city": "OXNARD",
        "state": "CA",
        "zip": "93030",
        "pointOfContact": "Nemal Shah",
        "telephone": "(949) 400-0451",
        "serviceType": "Electronic Return Originator, Intermediate Service Provider"
    },
    {
        "businessName": "BTI Bookkeeping Taxes & ITIN",
        "address": "1801 Solar Dr. Suite 221",
        "city": "Oxnard",
        "state": "CA",
        "zip": "93030",
        "pointOfContact": "Alejandra Ornelas",
        "telephone": "(805) 200-8302",
        "serviceType": "Electronic Return Originator"
    },
    {
        "businessName": "C&I Tax Services",
        "address": "220 W. 7th Street",
        "city": "Oxnard",
        "state": "CA",
        "zip": "93030",
        "pointOfContact": "irma perez",
        "telephone": "(805) 509-2474",
        "serviceType": "Electronic Return Originator"
    },
    {
        "businessName": "Castillo Multiservices",
        "address": "920 W Wooley rd",
        "city": "Oxnard",
        "state": "CA",
        "zip": "93030",
        "pointOfContact": "Esther Castillo",
        "telephone": "(805) 366-9129",
        "serviceType": "Electronic Return Originator"
    },
    {
        "businessName": "CBIZ MHM, LLC",
        "address": "300 ESPLANADE DR STE 250",
        "city": "OXNARD",
        "state": "CA",
        "zip": "93030",
        "pointOfContact": "Laura Rodgers",
        "telephone": "(816) 868-3308",
        "serviceType": "Electronic Return Originator"
    },
    {
        "businessName": "Centro Comunitario de Oxnard",
        "address": "136 E FIFTH STREETSUITE D",
        "city": "OXNARD",
        "state": "CA",
        "zip": "93030",
        "pointOfContact": "JULIO MONTES",
        "telephone": "(805) 436-0324",
        "serviceType": "Electronic Return Originator"
    },
    {
        "businessName": "cindy casimiro",
        "address": "2825 saviers rd",
        "city": "oxnard",
        "state": "CA",
        "zip": "93030",
        "pointOfContact": "cindy casimiro",
        "telephone": "(917) 353-0817",
        "serviceType": "Electronic Return Originator"
    },
    {
        "businessName": "DANTE TAX SERVICE",
        "address": "201 E 4TH ST #207",
        "city": "OXNARD",
        "state": "CA",
        "zip": "93030",
        "pointOfContact": "NANCY HUAPAYA",
        "telephone": "(805) 483-6665",
        "serviceType": "Electronic Return Originator"
    },
    {
        "businessName": "DEL PRADO TAX SERVICE",
        "address": "555 SOUTH B STREET",
        "city": "OXNARD",
        "state": "CA",
        "zip": "93030",
        "pointOfContact": "Sergio Prado",
        "telephone": "(805) 233-2208",
        "serviceType": "Electronic Return Originator"
    },
    {
        "businessName": "Douglas Kelley",
        "address": "668 DOUGLAS AVENUE",
        "city": "OXNARD",
        "state": "CA",
        "zip": "93030",
        "pointOfContact": "Douglas Kelley",
        "telephone": "(619) 246-9587",
        "serviceType": "Electronic Return Originator"
    },
    {
        "businessName": "DREAM HOME AN LOANS",
        "address": "716 N. VENTURA RDSUITE 210",
        "city": "OXNARD",
        "state": "CA",
        "zip": "93030",
        "pointOfContact": "William Elkins",
        "telephone": "(510) 353-1934",
        "serviceType": "Electronic Return Originator, Transmitter"
    },
    {
        "businessName": "Elias Espinoza",
        "address": "580 E THIRD ST SUITE A",
        "city": "OXNARD",
        "state": "CA",
        "zip": "93030",
        "pointOfContact": "Elias Espinoza",
        "telephone": "(805) 612-8461",
        "serviceType": "Electronic Return Originator"
    },
    {
        "businessName": "Excella Tax",
        "address": "522 N A Street, Ste A",
        "city": "OXNARD",
        "state": "CA",
        "zip": "93030",
        "pointOfContact": "MYLINH DO",
        "telephone": "(805) 248-0164",
        "serviceType": "Electronic Return Originator"
    },
    {
        "businessName": "EXCELLA TAX AND BOOKKEEPING SERVICE",
        "address": "522 N A Street, Ste A",
        "city": "OXNARD",
        "state": "CA",
        "zip": "93030",
        "pointOfContact": "JAMES MAO",
        "telephone": "(805) 248-0164",
        "serviceType": "Electronic Return Originator"
    },
    {
        "businessName": "FLAVIO'S INCOME TAX",
        "address": "1243 S OXNARD BOULEVARD",
        "city": "OXNARD",
        "state": "CA",
        "zip": "93030",
        "pointOfContact": "FLAVIO AGUILERA",
        "telephone": "(805) 486-8836",
        "serviceType": "Electronic Return Originator"
    },
    {
        "businessName": "G and C Tax Service",
        "address": "970 SOUTH A STREET",
        "city": "OXNARD",
        "state": "CA",
        "zip": "93030",
        "pointOfContact": "Kenneth Harper",
        "telephone": "(805) 844-9568",
        "serviceType": "Electronic Return Originator, Intermediate Service Provider"
    },
    {
        "businessName": "GR INCOME TAXES & multiservices",
        "address": "212 E 7TH ST",
        "city": "OXNARD",
        "state": "CA",
        "zip": "93030",
        "pointOfContact": "Gabriela Ramos",
        "telephone": "(805) 486-6246",
        "serviceType": "Electronic Return Originator"
    },
    {
        "businessName": "GR TAX SERVICES",
        "address": "652 Deodar Ave",
        "city": "Oxnard",
        "state": "CA",
        "zip": "93030",
        "pointOfContact": "Deidre Magee",
        "telephone": "(805) 444-0485",
        "serviceType": "Electronic Return Originator"
    },
    {
        "businessName": "GTS TAX SERVICE",
        "address": "723 COOPER RD SUITE B",
        "city": "OXNARD",
        "state": "CA",
        "zip": "93030",
        "pointOfContact": "DORI GOMEZ",
        "telephone": "(805) 832-8414",
        "serviceType": "Electronic Return Originator"
    },
    {
        "businessName": "GUADALUPE R GOMEZ",
        "address": "621 TERESA STREET",
        "city": "OXNARD",
        "state": "CA",
        "zip": "93030",
        "pointOfContact": "GUADALUPE GOMEZ",
        "telephone": "(805) 236-8340",
        "serviceType": "Electronic Return Originator"
    },
    {
        "businessName": "GUTIERREZ INCOME TAX",
        "address": "228 SOUTH A STREET STE C",
        "city": "OXNARD",
        "state": "CA",
        "zip": "93030",
        "pointOfContact": "VERONICA GUTIERREZ",
        "telephone": "(805) 981-0700",
        "serviceType": "Electronic Return Originator"
    },
    {
        "businessName": "H&R BLOCK",
        "address": "2711 S ROSE AVE STE D102",
        "city": "OXNARD",
        "state": "CA",
        "zip": "93030",
        "pointOfContact": "Houman Shahin",
        "telephone": "(805) 377-7392",
        "serviceType": "Electronic Return Originator"
    },
    {
        "businessName": "H&R BLOCK",
        "address": "421 S VENTURA RD",
        "city": "OXNARD",
        "state": "CA",
        "zip": "93030",
        "pointOfContact": "Houman Shahin",
        "telephone": "(805) 377-7392",
        "serviceType": "Electronic Return Originator"
    },
    {
        "businessName": "Hebert Cahuantzi",
        "address": "1614 N H St",
        "city": "Oxnard",
        "state": "CA",
        "zip": "93030",
        "pointOfContact": "Hebert Cahuantzi",
        "telephone": "(805) 758-2648",
        "serviceType": "Electronic Return Originator"
    },
    {
        "businessName": "HECTOR R ALVAREZ",
        "address": "230 W 7 ST STE A",
        "city": "OXNARD",
        "state": "CA",
        "zip": "93030",
        "pointOfContact": "HECTOR ALVAREZ",
        "telephone": "(805) 483-6462",
        "serviceType": "Electronic Return Originator"
    },
    {
        "businessName": "HERBERT K DAVIS",
        "address": "1530 ANNA WAY #45",
        "city": "OXNARD",
        "state": "CA",
        "zip": "93030",
        "pointOfContact": "HERBERT DAVIS",
        "telephone": "(805) 988-9115",
        "serviceType": "Electronic Return Originator"
    },
    {
        "businessName": "HERNANDEZ TAX SERVICE",
        "address": "1200 N Ventura Rd Ste F",
        "city": "Oxnard",
        "state": "CA",
        "zip": "93030",
        "pointOfContact": "ANTONIO HERNANDEZ",
        "telephone": "(805) 483-5675",
        "serviceType": "Electronic Return Originator"
    },
    {
        "businessName": "HOWARD J MCCLURE & ASSOCIATES",
        "address": "1825 N OXNARD BLVD 4",
        "city": "OXNARD",
        "state": "CA",
        "zip": "93030",
        "pointOfContact": "GUADALUPE LEMUS",
        "telephone": "(805) 278-6117",
        "serviceType": "Electronic Return Originator"
    },
    {
        "businessName": "IMPERIAL GROUP",
        "address": "136 NORTH A STREET",
        "city": "OXNARD",
        "state": "CA",
        "zip": "93030",
        "pointOfContact": "OSCAR SALAZAR",
        "telephone": "(805) 486-6865",
        "serviceType": "Electronic Return Originator, Transmitter"
    },
    {
        "businessName": "JACKSON HEWITT",
        "address": "321 SOUTH C STREET",
        "city": "OXNARD",
        "state": "CA",
        "zip": "93030",
        "pointOfContact": "ALMA PEREZ",
        "telephone": "(626) 295-1784",
        "serviceType": "Electronic Return Originator"
    },
    {
        "businessName": "JBD FINANCIAL SERVICES INC",
        "address": "254 W 1st Street",
        "city": "Oxnard",
        "state": "CA",
        "zip": "93030",
        "pointOfContact": "Darlene Gonzales",
        "telephone": "(805) 832-4300",
        "serviceType": "Electronic Return Originator, Intermediate Service Provider, Transmitter"
    },
    {
        "businessName": "JC Income Tax",
        "address": "1825 N Oxnard BlvdSuite 27 (Second Floor)",
        "city": "Oxnard",
        "state": "CA",
        "zip": "93030",
        "pointOfContact": "Jesus Chavarin",
        "telephone": "(805) 940-5703",
        "serviceType": "Electronic Return Originator"
    },
    {
        "businessName": "JC Income Tax",
        "address": "1825 N OXNARD BLVDSUITE 27",
        "city": "OXNARD",
        "state": "CA",
        "zip": "93030",
        "pointOfContact": "Jesus Chavarin",
        "telephone": "(805) 815-5364",
        "serviceType": "Electronic Return Originator"
    },
    {
        "businessName": "Jesus Delgado Hernandez",
        "address": "309 South A Street",
        "city": "Oxnard",
        "state": "CA",
        "zip": "93030",
        "pointOfContact": "Jesus DELG HERNANDEZ",
        "telephone": "(805) 342-7121",
        "serviceType": "Electronic Return Originator"
    },
    {
        "businessName": "JOHN A LETUS",
        "address": "1321 W JUNEBERRY PL",
        "city": "OXNARD",
        "state": "CA",
        "zip": "93030",
        "pointOfContact": "JOHN LETUS",
        "telephone": "(805) 485-2356",
        "serviceType": "Electronic Return Originator"
    },
    {
        "businessName": "JOSE ABEL BARRAGAN",
        "address": "110 S A STSTE C",
        "city": "OXNARD",
        "state": "CA",
        "zip": "93030",
        "pointOfContact": "JOSE BARRAGAN",
        "telephone": "(805) 832-4141",
        "serviceType": "Electronic Return Originator"
    },
    {
        "businessName": "JT TAX SERVICES, INC.",
        "address": "143 S B ST",
        "city": "OXNARD",
        "state": "CA",
        "zip": "93030",
        "pointOfContact": "JOSE TAPIA",
        "telephone": "(805) 984-8890",
        "serviceType": "Electronic Return Originator"
    },
    {
        "businessName": "JUANITAS INCOME TAX",
        "address": "446 NORTH \"A\" STRET",
        "city": "OXNARD",
        "state": "CA",
        "zip": "93030",
        "pointOfContact": "JOE RUNAS",
        "telephone": "(805) 483-3171",
        "serviceType": "Electronic Return Originator"
    },
    {
        "businessName": "LAK CONSULTING",
        "address": "721 MARIA WAY",
        "city": "OXNARD",
        "state": "CA",
        "zip": "93030",
        "pointOfContact": "AVIANCA HARPER",
        "telephone": "(805) 983-6397",
        "serviceType": "Electronic Return Originator"
    },
    {
        "businessName": "Legal & Secretarial Services Of Ven",
        "address": "1825 N. Oxnard Blvd. # 6",
        "city": "Oxnard",
        "state": "CA",
        "zip": "93030",
        "pointOfContact": "Aurora Franco Becerra",
        "telephone": "(805) 444-0318",
        "serviceType": "Electronic Return Originator"
    },
    {
        "businessName": "Liberty Tax Service",
        "address": "940 N VENTURA RD",
        "city": "OXNARD",
        "state": "CA",
        "zip": "93030",
        "pointOfContact": "Parul Gupta",
        "telephone": "(805) 436-5818",
        "serviceType": "Electronic Return Originator"
    },
    {
        "businessName": "Lili Perez Document Services",
        "address": "246 Joya St",
        "city": "Oxnard",
        "state": "CA",
        "zip": "93030",
        "pointOfContact": "Lili Perez",
        "telephone": "(805) 758-8712",
        "serviceType": "Electronic Return Originator"
    },
    {
        "businessName": "Lisa Miller",
        "address": "549 Glenwood Dr",
        "city": "OXNARD",
        "state": "CA",
        "zip": "93030",
        "pointOfContact": "Lisa Miller",
        "telephone": "(805) 816-4132",
        "serviceType": "Electronic Return Originator"
    },
    {
        "businessName": "Lizbeth Hurtado Garcia",
        "address": "410 Magnolia ave",
        "city": "Oxnard",
        "state": "CA",
        "zip": "93030",
        "pointOfContact": "LIZBETH HURTADO",
        "telephone": "(805) 843-4047",
        "serviceType": "Electronic Return Originator"
    },
    {
        "businessName": "LS Empire LLC",
        "address": "120 magnolia avenue",
        "city": "oxnard",
        "state": "CA",
        "zip": "93030",
        "pointOfContact": "Devan Munoz",
        "telephone": "(805) 407-9386",
        "serviceType": "Electronic Return Originator"
    },
    {
        "businessName": "LUIS R TELLO",
        "address": "431 SOUTH C ST",
        "city": "OXNARD",
        "state": "CA",
        "zip": "93030",
        "pointOfContact": "LUIS TELLO",
        "telephone": "(805) 223-4996",
        "serviceType": "Electronic Return Originator"
    },
    {
        "businessName": "M.A.S Services",
        "address": "543 South C St",
        "city": "Oxnard",
        "state": "CA",
        "zip": "93030",
        "pointOfContact": "Angelica Solis",
        "telephone": "(805) 276-4691",
        "serviceType": "Electronic Return Originator"
    },
    {
        "businessName": "MAGDALENA CONTRERAS",
        "address": "825 N A ST",
        "city": "OXNARD",
        "state": "CA",
        "zip": "93030",
        "pointOfContact": "MAGDALENA CONTRERAS",
        "telephone": "(805) 824-5729",
        "serviceType": "Electronic Return Originator, Transmitter"
    },
    {
        "businessName": "MANUEL ZAZUETA",
        "address": "215 W 4TH STREET",
        "city": "OXNARD",
        "state": "CA",
        "zip": "93030",
        "pointOfContact": "MANUEL ZAZUETA",
        "telephone": "(805) 205-4813",
        "serviceType": "Electronic Return Originator"
    },
    {
        "businessName": "margarita's income tax Services",
        "address": "440 SOUTH OXNARD BLVD",
        "city": "OXNARD",
        "state": "CA",
        "zip": "93030",
        "pointOfContact": "MARGARITA MARES",
        "telephone": "(805) 432-1777",
        "serviceType": "Electronic Return Originator"
    },
    {
        "businessName": "MARIAN BUSINESS SERVICES",
        "address": "118 SO A ST",
        "city": "OXNARD",
        "state": "CA",
        "zip": "93030",
        "pointOfContact": "MARY-ANNE CENISEROZ",
        "telephone": "(805) 487-0296",
        "serviceType": "Electronic Return Originator"
    },
    {
        "businessName": "Maribel Servin",
        "address": "309 S. A STREET",
        "city": "OXNARD",
        "state": "CA",
        "zip": "93030",
        "pointOfContact": "Maribel Servin",
        "telephone": "(805) 486-3090",
        "serviceType": "Electronic Return Originator"
    },
    {
        "businessName": "MARISOL SAUCEDO",
        "address": "730 South Oxnard Blvd Suite C",
        "city": "Oxnard",
        "state": "CA",
        "zip": "93030",
        "pointOfContact": "MARISOL SAUCEDO",
        "telephone": "(805) 844-2860",
        "serviceType": "Electronic Return Originator"
    },
    {
        "businessName": "MELISSA I ALVAREZ",
        "address": "1204 SEAPORT DR",
        "city": "OXNARD",
        "state": "CA",
        "zip": "93030",
        "pointOfContact": "MELISSA ALVAREZ",
        "telephone": "(805) 657-9283",
        "serviceType": "Electronic Return Originator"
    },
    {
        "businessName": "MONAS INCOME TAX",
        "address": "612 S OXNARD BLVD",
        "city": "OXNARD",
        "state": "CA",
        "zip": "93030",
        "pointOfContact": "MONA SHIVER",
        "telephone": "(805) 247-1936",
        "serviceType": "Electronic Return Originator"
    },
    {
        "businessName": "Montoya Tax Service",
        "address": "523 S. C ST",
        "city": "OXNARD",
        "state": "CA",
        "zip": "93030",
        "pointOfContact": "Michael Montoya",
        "telephone": "(805) 427-3992",
        "serviceType": "Electronic Return Originator"
    },
    {
        "businessName": "NapZa Income Tax Service",
        "address": "141 South A St Ste 203",
        "city": "Oxnard",
        "state": "CA",
        "zip": "93030",
        "pointOfContact": "MIRIAM CHAVEZ NAPOLES",
        "telephone": "(805) 607-1535",
        "serviceType": "Electronic Return Originator"
    },
    {
        "businessName": "PAYNELESS TAX SERVICE",
        "address": "433 NORTH A STREET",
        "city": "OXNARD",
        "state": "CA",
        "zip": "93030",
        "pointOfContact": "Randall Payne",
        "telephone": "(805) 487-7706",
        "serviceType": "Electronic Return Originator"
    },
    {
        "businessName": "R. Stephen Cripps, CPA",
        "address": "1301 RACHEL DRIVE",
        "city": "OXNARD",
        "state": "CA",
        "zip": "93030",
        "pointOfContact": "Robert Cripps",
        "telephone": "(805) 824-4704",
        "serviceType": "Electronic Return Originator"
    },
    {
        "businessName": "RUBEN J MESA TAX SERVICE",
        "address": "2145 N H ST",
        "city": "OXNARD",
        "state": "CA",
        "zip": "93030",
        "pointOfContact": "RUBEN MESA",
        "telephone": "(805) 983-2534",
        "serviceType": "Electronic Return Originator, Transmitter"
    },
    {
        "businessName": "SAL'S INCOME TAX",
        "address": "434 SOUTH A ST SUITE D",
        "city": "OXNARD",
        "state": "CA",
        "zip": "93030",
        "pointOfContact": "Salvador Aguilar",
        "telephone": "(805) 240-1188",
        "serviceType": "Electronic Return Originator"
    },
    {
        "businessName": "SAMANIEGO & ASSOCIATES",
        "address": "623 SOUTH A ST., STE B",
        "city": "OXNARD",
        "state": "CA",
        "zip": "93030",
        "pointOfContact": "JUAN SAMANIEGO",
        "telephone": "(805) 816-5624",
        "serviceType": "Electronic Return Originator, Transmitter"
    },
    {
        "businessName": "SANDRA A. BARRAGAN",
        "address": "237 W MAGNOLIA AVE",
        "city": "OXNARD",
        "state": "CA",
        "zip": "93030",
        "pointOfContact": "SANDRA BARRAGAN",
        "telephone": "(805) 844-1691",
        "serviceType": "Electronic Return Originator"
    },
    {
        "businessName": "SECRETARIAL SERVICES",
        "address": "720 S B ST",
        "city": "OXNARD",
        "state": "CA",
        "zip": "93030",
        "pointOfContact": "ROSA BARRAGAN",
        "telephone": "(805) 486-4767",
        "serviceType": "Electronic Return Originator, Intermediate Service Provider"
    },
    {
        "businessName": "SERGIO CISNEROS TAX SERVICE",
        "address": "110 SOUTH A STREET SUITE D",
        "city": "OXNARD",
        "state": "CA",
        "zip": "93030",
        "pointOfContact": "SERGIO CISNEROS",
        "telephone": "(805) 483-0344",
        "serviceType": "Electronic Return Originator"
    },
    {
        "businessName": "Superior Plus Income Tax",
        "address": "144 E 5th St",
        "city": "Oxnard",
        "state": "CA",
        "zip": "93030",
        "pointOfContact": "Diego Rubino",
        "telephone": "(805) 889-4383",
        "serviceType": "Electronic Return Originator"
    },
    {
        "businessName": "TAX-TAXATION",
        "address": "772 GITANO DR",
        "city": "OXNARD",
        "state": "CA",
        "zip": "93030",
        "pointOfContact": "MEHRDAD KAMALI",
        "telephone": "(818) 415-1922",
        "serviceType": "Electronic Return Originator"
    },
    {
        "businessName": "ULTRATAX",
        "address": "110 S A ST STE C",
        "city": "OXNARD",
        "state": "CA",
        "zip": "93030",
        "pointOfContact": "JOSE BARRAGAN",
        "telephone": "(805) 832-4141",
        "serviceType": "Electronic Return Originator"
    },
    {
        "businessName": "VICKY HERNANDEZ TAX PREPARE",
        "address": "300 S 5TH STREET SUITE G",
        "city": "OXNARD",
        "state": "CA",
        "zip": "93030",
        "pointOfContact": "VICTORIA HERNANDEZ",
        "telephone": "(805) 218-6304",
        "serviceType": "Electronic Return Originator"
    },
    {
        "businessName": "WD III Bookkeeping",
        "address": "3401 W 5TH ST STE 200",
        "city": "OXNARD",
        "state": "CA",
        "zip": "93030",
        "pointOfContact": "William De Zavala",
        "telephone": "(805) 727-0103",
        "serviceType": "Electronic Return Originator"
    },
    {
        "businessName": "Yepez Income Tax",
        "address": "301 HEARST DRIVE",
        "city": "OXNARD",
        "state": "CA",
        "zip": "93030",
        "pointOfContact": "Raul Yepez",
        "telephone": "(805) 758-1789",
        "serviceType": "Electronic Return Originator"
    }
]